{
  "type": "FeatureCollection",
  "features": [
    {
      "type": "Feature",
      "geometry": {
        "type": "Point",
        "coordinates": [
          73.18119957041166,
          22.307199089287163
        ]
      },
      "properties": {
        "hazard_id": "HAZ-0001",
        "class_id": 0,
        "class_name": "pothole_dry",
        "confidence": 0.9542,
        "estimated_volume_m3": 0.0496,
        "detections_count": 27,
        "first_detected": "2026-08-23T19:49:43.469568Z",
        "last_detected": "2026-08-23T19:49:48.669568Z"
      }
    },
    {
      "type": "Feature",
      "geometry": {
        "type": "Point",
        "coordinates": [
          73.18189945696265,
          22.30780088489153
        ]
      },
      "properties": {
        "hazard_id": "HAZ-0002",
        "class_id": 1,
        "class_name": "pothole_waterlogged",
        "confidence": 0.9516,
        "estimated_volume_m3": 0.0865,
        "detections_count": 36,
        "first_detected": "2026-08-23T19:49:48.869568Z",
        "last_detected": "2026-08-23T19:49:55.869568Z"
      }
    },
    {
      "type": "Feature",
      "geometry": {
        "type": "Point",
        "coordinates": [
          73.18250111259785,
          22.30850082135332
        ]
      },
      "properties": {
        "hazard_id": "HAZ-0003",
        "class_id": 3,
        "class_name": "waterlogging_area",
        "confidence": 0.9522,
        "estimated_volume_m3": 0.3549,
        "detections_count": 43,
        "first_detected": "2026-08-23T19:49:56.069568Z",
        "last_detected": "2026-08-23T19:50:04.469568Z"
      }
    },
    {
      "type": "Feature",
      "geometry": {
        "type": "Point",
        "coordinates": [
          73.18309966694453,
          22.309100282124472
        ]
      },
      "properties": {
        "hazard_id": "HAZ-0004",
        "class_id": 6,
        "class_name": "open_manhole",
        "confidence": 0.9587,
        "estimated_volume_m3": 0.1248,
        "detections_count": 43,
        "first_detected": "2026-08-23T19:50:04.669568Z",
        "last_detected": "2026-08-23T19:50:13.069568Z"
      }
    },
    {
      "type": "Feature",
      "geometry": {
        "type": "Point",
        "coordinates": [
          73.18049972564646,
          22.306501406682933
        ]
      },
      "properties": {
        "hazard_id": "HAZ-0005",
        "class_id": 2,
        "class_name": "crack",
        "confidence": 0.9409,
        "estimated_volume_m3": 0.017,
        "detections_count": 39,
        "first_detected": "2026-08-23T19:50:13.269568Z",
        "last_detected": "2026-08-23T19:50:20.869568Z"
      }
    },
    {
      "type": "Feature",
      "geometry": {
        "type": "Point",
        "coordinates": [
          73.17979929633199,
          22.305900130524005
        ]
      },
      "properties": {
        "hazard_id": "HAZ-0006",
        "class_id": 4,
        "class_name": "drainage_overflow",
        "confidence": 0.9582,
        "estimated_volume_m3": 0.2146,
        "detections_count": 44,
        "first_detected": "2026-08-23T19:50:21.069568Z",
        "last_detected": "2026-08-23T19:50:29.669568Z"
      }
    },
    {
      "type": "Feature",
      "geometry": {
        "type": "Point",
        "coordinates": [
          73.17909980848115,
          22.305200868005535
        ]
      },
      "properties": {
        "hazard_id": "HAZ-0007",
        "class_id": 5,
        "class_name": "damaged_footpath",
        "confidence": 0.9412,
        "estimated_volume_m3": 0.155,
        "detections_count": 31,
        "first_detected": "2026-08-23T19:50:29.869568Z",
        "last_detected": "2026-08-23T19:50:35.869568Z"
      }
    },
    {
      "type": "Feature",
      "geometry": {
        "type": "Point",
        "coordinates": [
          73.18020094179566,
          22.30810014062099
        ]
      },
      "properties": {
        "hazard_id": "HAZ-0008",
        "class_id": 0,
        "class_name": "pothole_dry",
        "confidence": 0.9565,
        "estimated_volume_m3": 0.0428,
        "detections_count": 42,
        "first_detected": "2026-08-23T19:50:36.069568Z",
        "last_detected": "2026-08-23T19:50:44.269568Z"
      }
    },
    {
      "type": "Feature",
      "geometry": {
        "type": "Point",
        "coordinates": [
          73.18400029690781,
          22.309799974913062
        ]
      },
      "properties": {
        "hazard_id": "HAZ-0009",
        "class_id": 1,
        "class_name": "pothole_waterlogged",
        "confidence": 0.9591,
        "estimated_volume_m3": 0.099,
        "detections_count": 29,
        "first_detected": "2026-08-23T19:50:44.469568Z",
        "last_detected": "2026-08-23T19:50:50.469568Z"
      }
    },
    {
      "type": "Feature",
      "geometry": {
        "type": "Point",
        "coordinates": [
          73.18399860869428,
          22.309792493578858
        ]
      },
      "properties": {
        "hazard_id": "HAZ-0010",
        "class_id": 1,
        "class_name": "pothole_waterlogged",
        "confidence": 0.8059,
        "estimated_volume_m3": 0.0927,
        "detections_count": 2,
        "first_detected": "2026-08-23T19:50:44.669568Z",
        "last_detected": "2026-08-23T19:50:44.869568Z"
      }
    },
    {
      "type": "Feature",
      "geometry": {
        "type": "Point",
        "coordinates": [
          73.1848004101896,
          22.31050046397387
        ]
      },
      "properties": {
        "hazard_id": "HAZ-0011",
        "class_id": 3,
        "class_name": "waterlogging_area",
        "confidence": 0.9535,
        "estimated_volume_m3": 0.5247,
        "detections_count": 37,
        "first_detected": "2026-08-23T19:50:50.669568Z",
        "last_detected": "2026-08-23T19:50:57.869568Z"
      }
    },
    {
      "type": "Feature",
      "geometry": {
        "type": "Point",
        "coordinates": [
          73.17819943875578,
          22.304500373509125
        ]
      },
      "properties": {
        "hazard_id": "HAZ-0012",
        "class_id": 6,
        "class_name": "open_manhole",
        "confidence": 0.9499,
        "estimated_volume_m3": 0.1147,
        "detections_count": 34,
        "first_detected": "2026-08-23T19:50:58.069568Z",
        "last_detected": "2026-08-23T19:51:04.669568Z"
      }
    },
    {
      "type": "Feature",
      "geometry": {
        "type": "Point",
        "coordinates": [
          73.1775004028295,
          22.303798453142733
        ]
      },
      "properties": {
        "hazard_id": "HAZ-0013",
        "class_id": 2,
        "class_name": "crack",
        "confidence": 0.9526,
        "estimated_volume_m3": 0.0227,
        "detections_count": 26,
        "first_detected": "2026-08-23T19:51:04.869568Z",
        "last_detected": "2026-08-23T19:51:09.869568Z"
      }
    },
    {
      "type": "Feature",
      "geometry": {
        "type": "Point",
        "coordinates": [
          73.18549916465149,
          22.311199531685443
        ]
      },
      "properties": {
        "hazard_id": "HAZ-0014",
        "class_id": 0,
        "class_name": "pothole_dry",
        "confidence": 0.9506,
        "estimated_volume_m3": 0.0649,
        "detections_count": 33,
        "first_detected": "2026-08-23T19:51:10.069568Z",
        "last_detected": "2026-08-23T19:51:16.469568Z"
      }
    },
    {
      "type": "Feature",
      "geometry": {
        "type": "Point",
        "coordinates": [
          73.18619909389673,
          22.31190067098118
        ]
      },
      "properties": {
        "hazard_id": "HAZ-0015",
        "class_id": 4,
        "class_name": "drainage_overflow",
        "confidence": 0.9538,
        "estimated_volume_m3": 0.185,
        "detections_count": 29,
        "first_detected": "2026-08-23T19:51:16.669568Z",
        "last_detected": "2026-08-23T19:51:22.269568Z"
      }
    },
    {
      "type": "Feature",
      "geometry": {
        "type": "Point",
        "coordinates": [
          73.18350086923262,
          22.30680086935262
        ]
      },
      "properties": {
        "hazard_id": "HAZ-0016",
        "class_id": 1,
        "class_name": "pothole_waterlogged",
        "confidence": 0.9517,
        "estimated_volume_m3": 0.0798,
        "detections_count": 29,
        "first_detected": "2026-08-23T19:51:22.469568Z",
        "last_detected": "2026-08-23T19:51:28.269568Z"
      }
    },
    {
      "type": "Feature",
      "geometry": {
        "type": "Point",
        "coordinates": [
          73.18349658867452,
          22.306807019892723
        ]
      },
      "properties": {
        "hazard_id": "HAZ-0017",
        "class_id": 1,
        "class_name": "pothole_waterlogged",
        "confidence": 0.7792,
        "estimated_volume_m3": 0.0745,
        "detections_count": 1,
        "first_detected": "2026-08-23T19:51:22.669568Z",
        "last_detected": "2026-08-23T19:51:22.669568Z"
      }
    },
    {
      "type": "Feature",
      "geometry": {
        "type": "Point",
        "coordinates": [
          73.18420044766798,
          22.30740118044399
        ]
      },
      "properties": {
        "hazard_id": "HAZ-0018",
        "class_id": 5,
        "class_name": "damaged_footpath",
        "confidence": 0.9584,
        "estimated_volume_m3": 0.1447,
        "detections_count": 40,
        "first_detected": "2026-08-23T19:51:28.469568Z",
        "last_detected": "2026-08-23T19:51:36.269568Z"
      }
    },
    {
      "type": "Feature",
      "geometry": {
        "type": "Point",
        "coordinates": [
          73.1790000117494,
          22.308800748663494
        ]
      },
      "properties": {
        "hazard_id": "HAZ-0019",
        "class_id": 0,
        "class_name": "pothole_dry",
        "confidence": 0.9475,
        "estimated_volume_m3": 0.057,
        "detections_count": 36,
        "first_detected": "2026-08-23T19:51:36.469568Z",
        "last_detected": "2026-08-23T19:51:43.469568Z"
      }
    },
    {
      "type": "Feature",
      "geometry": {
        "type": "Point",
        "coordinates": [
          73.18149882467775,
          22.31009850023156
        ]
      },
      "properties": {
        "hazard_id": "HAZ-0020",
        "class_id": 6,
        "class_name": "open_manhole",
        "confidence": 0.9584,
        "estimated_volume_m3": 0.135,
        "detections_count": 25,
        "first_detected": "2026-08-23T19:51:43.669568Z",
        "last_detected": "2026-08-23T19:51:48.469568Z"
      }
    }
  ]
}
